BEIDOU 3 (C01)          
1 36287U 10001A   21223.49623536 -.00000283  00000-0  00000+0 0  9999
2 36287   1.9590  48.3072 0005655  88.6058 142.3337  1.00269288 42401
BEIDOU 5 (C06)          
1 36828U 10036A   21222.81841346 -.00000121  00000-0  00000+0 0  9995
2 36828  54.1824 179.0994 0023074 182.9950 358.1104  1.00288982 40466
BEIDOU 6 (C04)          
1 37210U 10057A   21222.85419130 -.00000114  00000-0  00000-0 0  9993
2 37210   0.9292  52.8424 0005822 128.5788 245.6891  1.00272322 39521
BEIDOU 7 (C07)          
1 37256U 10068A   21222.58494100 -.00000186  00000-0  00000-0 0  9994
2 37256  50.7689 293.3516 0092105 217.7782 136.0328  1.00296074 39026
BEIDOU 8 (C08)          
1 37384U 11013A   21222.86462265 -.00000166  00000-0  00000-0 0  9993
2 37384  59.8478  57.3515 0054334 206.8128 124.7905  1.00290897 37903
BEIDOU 9 (C09)          
1 37763U 11038A   21223.06787382 -.00000060  00000-0  00000+0 0  9996
2 37763  54.4700 181.5373 0084406 226.9851  28.1128  1.00254466 36886
BEIDOU 10 (C10)         
1 37948U 11073A   21222.74750226 -.00000130  00000-0  00000-0 0  9990
2 37948  50.8702 292.9775 0077832 215.8463 175.7833  1.00281288 35644
BEIDOU 11 (C05)         
1 38091U 12008A   21223.48000949  .00000055  00000-0  00000+0 0  9995
2 38091   1.6666  69.3324 0005863 338.6946 143.6806  1.00268447 34722
BEIDOU 12 (C11)         
1 38250U 12018A   21222.73901854 -.00000072  00000-0  00000-0 0  9996
2 38250  56.7511   3.8207 0020958 244.1669  86.0347  1.86234447 63298
BEIDOU 13 (C12)         
1 38251U 12018B   21222.68532197 -.00000072  00000-0  00000+0 0  9990
2 38251  56.6750   3.1689 0011892 243.3993  95.1733  1.86234233 63291
BEIDOU 15 (C14)         
1 38775U 12050B   21222.87093897  .00000010  00000-0  00000+0 0  9998
2 38775  55.2323 122.1497 0014580 323.9047 336.5258  1.86232280 60677
BEIDOU 16 (C02)         
1 38953U 12059A   21223.09354889 -.00000179  00000-0  00000+0 0  9998
2 38953   1.2261  83.8467 0010914 297.5582  56.1335  1.00274276 32288
BEIDOU 17 (C31)         
1 40549U 15019A   21223.46181537 -.00000152  00000-0  00000+0 0  9991
2 40549  52.4056 316.3565 0039989 189.0326  73.8095  1.00254383 23320
BEIDOU 18 (C57)         
1 40748U 15037A   21223.42380250 -.00000073  00000-0  00000+0 0  9993
2 40748  55.9339   2.1969 0003390  53.3047 330.2079  1.86233511 41147
BEIDOU 19 (C58)         
1 40749U 15037B   21223.52853178 -.00000073  00000-0  00000+0 0  9999
2 40749  55.9379   2.1834 0002265 331.8821 257.7107  1.86232250 41130
BEIDOU 20 (C18)         
1 40938U 15053A   21223.39405698 -.00000104  00000-0  00000+0 0  9997
2 40938  51.9783 279.4343 0048328 194.5717  84.4072  1.00270730 21592
BEIDOU IGSO-6 (C13)     
1 41434U 16021A   21222.25207567 -.00000120  00000-0  00000-0 0  9993
2 41434  57.6332  56.0757 0038540 210.9322 236.8729  1.00258871 19710
BEIDOU-2 G7 (C03)       
1 41586U 16037A   21223.00395896 -.00000356  00000-0  00000+0 0  9995
2 41586   1.8119  68.2939 0008265  19.9573 343.2548  1.00265387 19021
BEIDOU-3 M1 (C19)       
1 43001U 17069A   21223.13276547  .00000011  00000-0  00000+0 0  9997
2 43001  55.3866 122.0994 0010100 295.2803 336.6398  1.86231879 25618
BEIDOU-3 M2 (C20)       
1 43002U 17069B   21223.48299799  .00000010  00000-0  00000+0 0  9999
2 43002  55.3867 122.1242 0009110 317.1418 232.9880  1.86231424 25612
BEIDOU-3 M3 (C27)       
1 43107U 18003A   21222.36491215 -.00000075  00000-0  00000-0 0  9990
2 43107  55.3782   3.2890 0005165  63.1395 263.2694  1.86232573 24356
BEIDOU-3 M4 (C28)       
1 43108U 18003B   21222.71734213 -.00000074  00000-0  00000-0 0  9997
2 43108  55.3723   3.2654 0002548 219.6186  28.2552  1.86232586 24365
BEIDOU-3 M5 (C21)       
1 43207U 18018A   21221.72098302  .00000006  00000-0  00000-0 0  9999
2 43207  55.3453 122.2722 0006824 339.1596  20.8677  1.86231725 23737
BEIDOU-3 M6 (C22)       
1 43208U 18018B   21222.86159456  .00000010  00000-0  00000+0 0  9998
2 43208  55.3451 122.2380 0008279 307.7878  52.1978  1.86231658 23755
BEIDOU-3 M7 (C29)       
1 43245U 18029A   21222.60927758 -.00000075  00000-0  00000-0 0  9994
2 43245  55.3068   1.0695 0001173 116.6323 283.8393  1.86232721 22903
BEIDOU-3 M8 (C30)       
1 43246U 18029B   21222.54464116 -.00000075  00000-0  10000-3 0  9996
2 43246  55.3043   1.1031 0003191   4.4463  38.9256  1.86233204 22895
BEIDOU IGSO-7 (C16)     
1 43539U 18057A   21223.06447580 -.00000125  00000-0  00000+0 0  9997
2 43539  55.0643 178.4641 0038940 223.5256  51.9107  1.00252194 11390
BEIDOU-3 M9 (C23)       
1 43581U 18062A   21223.42410333  .00000068  00000-0  00000+0 0  9991
2 43581  54.3832 242.7105 0006175 265.4852 217.7291  1.86231896 20656
BEIDOU-3 M10 (C24)      
1 43582U 18062B   21222.65098506  .00000068  00000-0  00000-0 0  9991
2 43582  54.3810 242.7268 0004812 324.7380  91.5266  1.86232451 20641
BEIDOU-3 M11 (C25)      
1 43602U 18067A   21222.87613226  .00000069  00000-0  00000-0 0  9996
2 43602  54.4587 241.3073 0006497 350.0261 259.3168  1.86231702 20133
BEIDOU-3 M12 (C26)      
1 43603U 18067B   21222.77879744  .00000069  00000-0  00000-0 0  9995
2 43603  54.4553 241.2770 0004084 330.4540 124.0806  1.86231617 20156
BEIDOU-3 M13 (C32)      
1 43622U 18072A   21223.06304701  .00000010  00000-0  00000+0 0  9996
2 43622  55.3110 121.7925 0006693 293.9692  21.1822  1.86231957 19665
BEIDOU-3 M14 (C33)      
1 43623U 18072B   21223.40649683  .00000010  00000-0  00000+0 0  9996
2 43623  55.3127 121.7724 0005362 320.5245 315.1299  1.86231968 19671
BEIDOU-3 M15 (C34)      
1 43647U 18078A   21223.22803639 -.00000074  00000-0  10000-3 0  9997
2 43647  55.2002   1.2331 0005649   8.0968  43.1320  1.86232887 19182
BEIDOU-3 M16 (C35)      
1 43648U 18078B   21222.67473272 -.00000075  00000-0  00000-0 0  9999
2 43648  55.1972   1.2599 0003985  26.8005 281.8302  1.86232409 19186
BEIDOU-3 G1 (C59)       
1 43683U 18085A   21222.85017844 -.00000281  00000-0  00000-0 0  9994
2 43683   0.9811 220.3240 0003645  18.1322 167.0448  1.00276959 10294
BEIDOU-3 M17 (C36)      
1 43706U 18093A   21222.36777439  .00000068  00000-0  00000-0 0  9990
2 43706  54.4635 242.6090 0011807 268.6481  91.2660  1.86231821 18548
BEIDOU-3 M18 (C37)      
1 43707U 18093B   21223.49687612  .00000068  00000-0  00000+0 0  9998
2 43707  54.4627 242.5620 0009776 287.5285 200.2980  1.86232142 18557
BEIDOU-3 IGSO-1 (C38)   
1 44204U 19023A   21222.38880782 -.00000187  00000-0  00000-0 0  9999
2 44204  56.0952  56.3276 0019599 187.9125 328.8426  1.00279370  8592
BEIDOU-2 G8             
1 44231U 19027A   21222.92284595 -.00000249  00000-0  00000-0 0  9992
2 44231   0.2614  17.2859 0006336 179.3783 239.6950  1.00274898  8312
BEIDOU-3 IGSO-2 (C39)   
1 44337U 19035A   21223.06274491 -.00000135  00000-0  00000+0 0  9991
2 44337  55.1047 174.5075 0020106 184.9202  99.6656  1.00295691  7932
BEIDOU-3 M23 (C45)      
1 44542U 19061A   21223.26014169  .00000068  00000-0  10000-3 0  9993
2 44542  54.6866 242.6602 0008624 315.3431 326.6086  1.86231393 12806
BEIDOU-3 M24 (C46)      
1 44543U 19061B   21222.79249353  .00000068  00000-0  10000-3 0  9996
2 44543  54.6854 242.6460 0006543 299.1413 300.2054  1.86231846 12797
BEIDOU-3 IGSO-3         
1 44709U 19073A   21223.51715652 -.00000147  00000-0  00000+0 0  9998
2 44709  57.7587 299.5954 0021555 202.3899 110.0988  1.00261681  6692
BEIDOU-3 M21            
1 44793U 19078A   21223.27502468 -.00000075  00000-0  10000-3 0  9993
2 44793  55.0486   1.2917 0005695  16.2027  20.8953  1.86232412 11671
BEIDOU-3 M22            
1 44794U 19078B   21223.34366244 -.00000075  00000-0  00000+0 0  9997
2 44794  55.0239   1.2869 0003786  19.5405 334.6657  1.86232913 11661
BEIDOU-3 M19            
1 44864U 19090A   21222.93308863  .00000010  00000-0  00000-0 0  9995
2 44864  55.2459 122.0251 0016156 270.1735   3.3550  1.86231993 11241
BEIDOU-3 M20            
1 44865U 19090B   21222.86297188  .00000010  00000-0  00000-0 0  9995
2 44865  55.2482 122.0577 0014962 285.0381  31.3918  1.86231935 11216
BEIDOU-3 G2             
1 45344U 20017A   21223.12532046 -.00000141  00000-0  00000+0 0  9999
2 45344   2.3610 338.3141 0004075 148.5922 318.0461  1.00271187  5515
BEIDOU-3 G3             
1 45807U 20040A   21223.49030332 -.00000356  00000-0  00000+0 0  9998
2 45807   2.1578 298.6927 0007077 340.5636 327.9683  1.00270795  4328
